[Satellite]
VERSION=1.1
NAME=TechnoSat
NICKNAME=TechnoSat
TLE1=1 42829U 17042E   22335.07100080  .00001392  00000-0  14105-3 0  9999
TLE2=2 42829  97.4001 179.3629 0014096 163.7341 196.4334 14.92329793292934
STATUS=0
